{"type": "FeatureCollection", "features": [{"type": "Feature", "geometry": {"type": "Point", "coordinates": [-75.5472551, 10.4247184]}, "properties": {"id": 1260309733, "amenity": "atm", "brand": "Scotiabank-Colpatria", "cash_in": "no", "drive_through": "no", "fee": "yes", "man_made": "surveillance", "network": "MasterCard, Visa, Maestro, Cirrus, American Express", "opening_hours": "24/7", "operator": "Colpatria", "wheelchair": "yes", "data_source": "planet_osm"}}, {"type": "Feature", "geometry": {"type": "Point", "coordinates": [-75.5475792, 10.424]}, "properties": {"id": 3887887163, "amenity": "atm", "brand": "Scotiabank-Colpatria", "cash_in": "no", "drive_through": "no", "fee": "yes", "man_made": "surveillance", "network": "MasterCard, Visa, Maestro, Cirrus, American Express", "opening_hours": "24/7", "operator": "Colpatria", "wheelchair": "yes", "data_source": "planet_osm"}}, {"type": "Feature", "geometry": {"type": "Point", "coordinates": [-75.5474022, 10.4240792]}, "properties": {"id": 3887890901, "amenity": "atm", "brand": "Servibanca", "cash_in": "no", "drive_through": "no", "fee": "no", "man_made": "surveillance", "name": "Servibanca", "network": "MasterCard, Visa, Maestro, Cirrus, American Express", "opening_hours": "24/7", "operator": "Servibanca", "wheelchair": "no", "data_source": "planet_osm"}}, {"type": "Feature", "geometry": {"type": "Point", "coordinates": [-74.8324889, 10.2531338]}, "properties": {"id": 3979135744, "camera:mount": "pole", "camera:type": "fixed", "height": "4", "man_made": "surveillance", "operator": "Polic\u00eda Nacional", "surveillance": "public", "surveillance:type": "camera", "surveillance:zone": "town", "data_source": "planet_osm"}}, {"type": "Feature", "geometry": {"type": "Point", "coordinates": [-74.8327872, 10.2537863]}, "properties": {"id": 3979135772, "camera:mount": "pole", "camera:type": "fixed", "height": "4", "man_made": "surveillance", "operator": "Polic\u00eda Nacional", "surveillance": "public", "surveillance:type": "camera", "surveillance:zone": "town", "data_source": "planet_osm"}}, {"type": "Feature", "geometry": {"type": "Point", "coordinates": [-74.835759, 10.2587484]}, "properties": {"id": 3979135907, "camera:mount": "pole", "camera:type": "fixed", "height": "4", "man_made": "surveillance", "operator": "Polic\u00eda Nacional", "surveillance": "public", "surveillance:type": "camera", "surveillance:zone": "town", "data_source": "planet_osm"}}, {"type": "Feature", "geometry": {"type": "Point", "coordinates": [-74.8357677, 10.2590328]}, "properties": {"id": 3979135933, "camera:mount": "pole", "camera:type": "fixed", "height": "4", "man_made": "surveillance", "operator": "Polic\u00eda Nacional", "surveillance": "public", "surveillance:type": "camera", "surveillance:zone": "town", "data_source": "planet_osm"}}, {"type": "Feature", "geometry": {"type": "Point", "coordinates": [-74.8354468, 10.259083]}, "properties": {"id": 3979135940, "camera:mount": "pole", "camera:type": "fixed", "height": "4", "man_made": "surveillance", "operator": "Polic\u00eda Nacional", "surveillance": "public", "surveillance:type": "camera", "surveillance:zone": "town", "data_source": "planet_osm"}}, {"type": "Feature", "geometry": {"type": "Point", "coordinates": [-75.5471662, 10.4237554]}, "properties": {"id": 4269983698, "amenity": "atm", "brand": "Davivienda", "brand:wikidata": "Q5242054", "cash_in": "no", "drive_through": "no", "fee": "no", "man_made": "surveillance", "network": "MasterCard, Visa, Maestro, Cirrus, American Express", "opening_hours": "24/7", "operator": "Davivienda", "operator:wikidata": "Q5242054", "wheelchair": "no", "data_source": "planet_osm"}}, {"type": "Feature", "geometry": {"type": "Point", "coordinates": [-74.8323562, 10.2533811]}, "properties": {"id": 4407530965, "camera:mount": "pole", "camera:type": "fixed", "height": "4", "man_made": "surveillance", "operator": "Polic\u00eda Nacional", "surveillance": "public", "surveillance:type": "camera", "surveillance:zone": "town", "data_source": "planet_osm"}}, {"type": "Feature", "geometry": {"type": "Point", "coordinates": [-74.8326841, 10.2539436]}, "properties": {"id": 4407530966, "camera:mount": "pole", "camera:type": "fixed", "height": "4", "man_made": "surveillance", "operator": "Polic\u00eda Nacional", "surveillance": "outdoor", "surveillance:type": "camera", "surveillance:zone": "town", "data_source": "planet_osm"}}, {"type": "Feature", "geometry": {"type": "Point", "coordinates": [-75.5656594, 6.2096463]}, "properties": {"id": 4666563788, "highway": "speed_camera", "man_made": "surveillance", "maxspeed": "60", "name": "Fotodetecci\u00f3n", "surveillance:type": "camera", "data_source": "planet_osm"}}, {"type": "Feature", "geometry": {"type": "Point", "coordinates": [-75.548976, 10.4252142]}, "properties": {"id": 4696520491, "amenity": "atm", "brand": "Servibanca", "cash_in": "no", "drive_through": "no", "fee": "no", "man_made": "surveillance", "network": "MasterCard, Visa, Maestro, Cirrus, American Express", "opening_hours": "24/7", "operator": "Servibanca", "wheelchair": "no", "data_source": "planet_osm"}}, {"type": "Feature", "geometry": {"type": "Point", "coordinates": [-75.5454663, 10.4276905]}, "properties": {"id": 4772583777, "amenity": "atm", "brand": "Bancolombia", "brand:wikidata": "Q806206", "cash_in": "no", "drive_through": "no", "fee": "no", "man_made": "surveillance", "network": "MasterCard, Visa, Maestro, Cirrus, American Express", "opening_hours": "Mo-Sa 08:00-20:00", "operator": "Bancolombia", "operator:wikidata": "Q806206", "wheelchair": "limited", "data_source": "planet_osm"}}, {"type": "Feature", "geometry": {"type": "Point", "coordinates": [-75.5450956, 10.4314611]}, "properties": {"id": 4772584142, "amenity": "atm", "brand": "Bancolombia", "brand:wikidata": "Q806206", "cash_in": "no", "drive_through": "no", "fee": "no", "man_made": "surveillance", "network": "MasterCard, Visa, Maestro, Cirrus, American Express", "opening_hours": "Mo-Sa 08:00-20:00", "operator": "Bancolombia", "operator:wikidata": "Q806206", "wheelchair": "limited", "data_source": "planet_osm"}}, {"type": "Feature", "geometry": {"type": "Point", "coordinates": [-75.5470824, 10.4245039]}, "properties": {"id": 4890787321, "amenity": "atm", "brand": "Servibanca", "cash_in": "no", "drive_through": "no", "fee": "no", "man_made": "surveillance", "network": "MasterCard, Visa, Maestro, Cirrus, American Express", "opening_hours": "24/7", "operator": "Servibanca", "wheelchair": "no", "data_source": "planet_osm"}}, {"type": "Feature", "geometry": {"type": "Point", "coordinates": [-75.546974, 10.4252534]}, "properties": {"id": 4962736225, "amenity": "atm", "brand": "Servibanca", "cash_in": "no", "drive_through": "no", "fee": "yes", "man_made": "surveillance", "network": "MasterCard, Visa, Maestro, Cirrus, American Express", "opening_hours": "Mo-Sa 08:00-21:00", "operator": "Servibanca", "wheelchair": "limited", "data_source": "planet_osm"}}, {"type": "Feature", "geometry": {"type": "Point", "coordinates": [-75.5919074, 6.2227063]}, "properties": {"id": 5214639322, "man_made": "surveillance", "data_source": "planet_osm"}}, {"type": "Feature", "geometry": {"type": "Point", "coordinates": [-75.5323268, 10.4208741]}, "properties": {"id": 5303761686, "amenity": "atm", "brand": "Bancolombia", "brand:wikidata": "Q806206", "cash_in": "no", "currency:COP": "yes", "drive_through": "no", "fee": "no", "man_made": "surveillance", "network": "MasterCard, Visa, Maestro, Cirrus, American Express", "opening_hours": "24/7", "operator": "Bancolombia", "operator:wikidata": "Q806206", "wheelchair": "no", "data_source": "planet_osm"}}, {"type": "Feature", "geometry": {"type": "Point", "coordinates": [-73.6747822, 6.0144013]}, "properties": {"id": 5726241207, "camera:mount": "pole", "camera:type": "dome", "man_made": "surveillance", "operator": "Policia Nacional", "surveillance": "public", "surveillance:type": "camera", "surveillance:zone": "street", "data_source": "planet_osm"}}, {"type": "Feature", "geometry": {"type": "Point", "coordinates": [-73.67349, 6.0163985]}, "properties": {"id": 5726242584, "camera:mount": "pole", "camera:type": "dome", "man_made": "surveillance", "operator": "Polic\u00eda Nacional", "surveillance": "public", "surveillance:type": "camera", "surveillance:zone": "town", "data_source": "planet_osm"}}, {"type": "Feature", "geometry": {"type": "Point", "coordinates": [-73.6695439, 6.0197965]}, "properties": {"id": 5726264115, "camera:mount": "pole", "camera:type": "dome", "man_made": "surveillance", "operator": "Polic\u00eda Nacional", "surveillance": "public", "surveillance:type": "camera", "surveillance:zone": "town", "data_source": "planet_osm"}}, {"type": "Feature", "geometry": {"type": "Point", "coordinates": [-73.6727092, 6.0137505]}, "properties": {"id": 5726266397, "camera:mount": "pole", "camera:type": "dome", "man_made": "surveillance", "operator": "Polic\u00eda Nacional", "surveillance": "public", "surveillance:type": "camera", "surveillance:zone": "town", "data_source": "planet_osm"}}, {"type": "Feature", "geometry": {"type": "Point", "coordinates": [-73.6764263, 6.0102928]}, "properties": {"id": 5757454840, "camera:mount": "pole", "camera:type": "dome", "man_made": "surveillance", "operator": "Polic\u00eda Nacional", "surveillance": "public", "surveillance:type": "camera", "surveillance:zone": "town", "data_source": "planet_osm"}}, {"type": "Feature", "geometry": {"type": "Point", "coordinates": [-73.6733064, 6.0107763]}, "properties": {"id": 5779444186, "camera:mount": "pole", "camera:type": "dome", "man_made": "surveillance", "operator": "Polic\u00eda Nacional", "surveillance": "public", "surveillance:type": "camera", "surveillance:zone": "town", "data_source": "planet_osm"}}, {"type": "Feature", "geometry": {"type": "Point", "coordinates": [-75.5402166, 10.4132397]}, "properties": {"id": 5794578946, "amenity": "atm", "brand": "Bancolombia", "brand:wikidata": "Q806206", "cash_in": "no", "drive_through": "no", "fee": "no", "man_made": "surveillance", "network": "MasterCard, Visa, Maestro, Cirrus, American Express", "opening_hours": "24/7", "operator": "Bancolombia", "operator:wikidata": "Q806206", "wheelchair": "yes", "data_source": "planet_osm"}}, {"type": "Feature", "geometry": {"type": "Point", "coordinates": [-75.5402058, 10.4132555]}, "properties": {"id": 5794578947, "amenity": "atm", "brand": "AV Villas", "cash_in": "no", "drive_through": "no", "fee": "no", "man_made": "surveillance", "network": "MasterCard, Visa, Maestro, Cirrus, American Express", "opening_hours": "24/7", "operator": "AV Villas", "wheelchair": "yes", "data_source": "planet_osm"}}, {"type": "Feature", "geometry": {"type": "Point", "coordinates": [-75.5401958, 10.4132681]}, "properties": {"id": 5794578948, "amenity": "atm", "brand": "Davivienda", "brand:wikidata": "Q5242054", "cash_in": "no", "drive_through": "no", "fee": "no", "man_made": "surveillance", "network": "MasterCard, Visa, Maestro, Cirrus, American Express", "opening_hours": "24/7", "operator": "Davivienda", "operator:wikidata": "Q5242054", "wheelchair": "yes", "data_source": "planet_osm"}}, {"type": "Feature", "geometry": {"type": "Point", "coordinates": [-75.5404734, 10.4128664]}, "properties": {"id": 5794578949, "amenity": "atm", "brand": "BBVA", "brand:wikidata": "Q806189", "cash_in": "no", "drive_through": "no", "fee": "no", "man_made": "surveillance", "network": "MasterCard, Visa, Maestro, Cirrus, American Express", "opening_hours": "24/7", "operator": "BBVA", "operator:wikidata": "Q806189", "wheelchair": "yes", "data_source": "planet_osm"}}, {"type": "Feature", "geometry": {"type": "Point", "coordinates": [-75.5397257, 10.4133881]}, "properties": {"id": 5794578950, "amenity": "atm", "brand": "BBVA", "brand:wikidata": "Q806189", "cash_in": "no", "drive_through": "no", "fee": "no", "man_made": "surveillance", "network": "MasterCard, Visa, Maestro, Cirrus, American Express", "opening_hours": "24/7", "operator": "BBVA", "operator:wikidata": "Q806189", "wheelchair": "yes", "data_source": "planet_osm"}}, {"type": "Feature", "geometry": {"type": "Point", "coordinates": [-75.5396426, 10.4134712]}, "properties": {"id": 5794578951, "amenity": "atm", "brand": "Bancolombia", "brand:wikidata": "Q806206", "cash_in": "no", "drive_through": "no", "fee": "no", "man_made": "surveillance", "network": "MasterCard, Visa, Maestro, Cirrus, American Express", "opening_hours": "24/7", "operator": "Bancolombia", "operator:wikidata": "Q806206", "wheelchair": "no", "data_source": "planet_osm"}}, {"type": "Feature", "geometry": {"type": "Point", "coordinates": [-75.5396352, 10.4134804]}, "properties": {"id": 5794578952, "amenity": "atm", "brand": "Bancolombia", "brand:wikidata": "Q806206", "cash_in": "no", "drive_through": "no", "fee": "no", "man_made": "surveillance", "network": "MasterCard, Visa, Maestro, Cirrus, American Express", "opening_hours": "24/7", "operator": "Bancolombia", "operator:wikidata": "Q806206", "wheelchair": "no", "data_source": "planet_osm"}}, {"type": "Feature", "geometry": {"type": "Point", "coordinates": [-75.5396231, 10.413491]}, "properties": {"id": 5794579053, "amenity": "atm", "brand": "Bancolombia", "brand:wikidata": "Q806206", "cash_in": "no", "drive_through": "no", "fee": "no", "man_made": "surveillance", "network": "MasterCard, Visa, Maestro, Cirrus, American Express", "opening_hours": "24/7", "operator": "Bancolombia", "operator:wikidata": "Q806206", "wheelchair": "no", "data_source": "planet_osm"}}, {"type": "Feature", "geometry": {"type": "Point", "coordinates": [-75.5396131, 10.4134982]}, "properties": {"id": 5794579054, "amenity": "atm", "brand": "Bancolombia", "brand:wikidata": "Q806206", "cash_in": "yes", "drive_through": "no", "fee": "no", "man_made": "surveillance", "network": "MasterCard, Visa, Maestro, Cirrus, American Express", "opening_hours": "24/7", "operator": "Bancolombia", "operator:wikidata": "Q806206", "wheelchair": "no", "data_source": "planet_osm"}}, {"type": "Feature", "geometry": {"type": "Point", "coordinates": [-75.5416623, 10.4156917]}, "properties": {"id": 5794579059, "amenity": "atm", "brand": "Bancolombia", "brand:wikidata": "Q806206", "cash_in": "no", "drive_through": "no", "fee": "no", "man_made": "surveillance", "network": "MasterCard, Visa, Maestro, Cirrus, American Express", "opening_hours": "24/7", "operator": "Bancolombia", "operator:wikidata": "Q806206", "wheelchair": "no", "data_source": "planet_osm"}}, {"type": "Feature", "geometry": {"type": "Point", "coordinates": [-75.5425709, 10.4163605]}, "properties": {"id": 5794579060, "amenity": "atm", "brand": "Davivienda", "brand:wikidata": "Q5242054", "cash_in": "no", "drive_through": "no", "fee": "yes", "man_made": "surveillance", "network": "MasterCard, Visa, Maestro, Cirrus, American Express", "opening_hours": "24/7", "operator": "Davivienda", "operator:wikidata": "Q5242054", "wheelchair": "no", "data_source": "planet_osm"}}, {"type": "Feature", "geometry": {"type": "Point", "coordinates": [-75.542587, 10.4163737]}, "properties": {"id": 5794579061, "amenity": "atm", "brand": "Colpatria", "cash_in": "no", "drive_through": "no", "fee": "yes", "man_made": "surveillance", "network": "MasterCard, Visa, Maestro, Cirrus, American Express", "opening_hours": "24/7", "operator": "Colpatria", "wheelchair": "no", "data_source": "planet_osm"}}, {"type": "Feature", "geometry": {"type": "Point", "coordinates": [-75.5426037, 10.4163836]}, "properties": {"id": 5794579062, "amenity": "atm", "brand": "Servibanca", "cash_in": "no", "drive_through": "no", "fee": "yes", "man_made": "surveillance", "network": "MasterCard, Visa, Maestro, Cirrus, American Express", "opening_hours": "24/7", "operator": "Servibanca", "wheelchair": "no", "data_source": "planet_osm"}}, {"type": "Feature", "geometry": {"type": "Point", "coordinates": [-75.5416727, 10.4167272]}, "properties": {"id": 5794579078, "amenity": "atm", "brand": "Davivienda", "brand:wikidata": "Q5242054", "cash_in": "no", "drive_through": "no", "fee": "yes", "man_made": "surveillance", "network": "MasterCard, Visa, Maestro, Cirrus, American Express", "opening_hours": "24/7", "operator": "Davivienda", "operator:wikidata": "Q5242054", "wheelchair": "no", "data_source": "planet_osm"}}, {"type": "Feature", "geometry": {"type": "Point", "coordinates": [-75.5416807, 10.4167298]}, "properties": {"id": 5794579079, "amenity": "atm", "brand": "Davivienda", "brand:wikidata": "Q5242054", "cash_in": "no", "drive_through": "no", "fee": "yes", "man_made": "surveillance", "network": "MasterCard, Visa, Maestro, Cirrus, American Express", "opening_hours": "24/7", "operator": "Davivienda", "operator:wikidata": "Q5242054", "wheelchair": "no", "data_source": "planet_osm"}}, {"type": "Feature", "geometry": {"type": "Point", "coordinates": [-75.5416898, 10.4167328]}, "properties": {"id": 5794579080, "amenity": "atm", "brand": "Davivienda", "brand:wikidata": "Q5242054", "cash_in": "no", "drive_through": "no", "fee": "yes", "man_made": "surveillance", "network": "MasterCard, Visa, Maestro, Cirrus, American Express", "opening_hours": "24/7", "operator": "Davivienda", "operator:wikidata": "Q5242054", "wheelchair": "no", "data_source": "planet_osm"}}, {"type": "Feature", "geometry": {"type": "Point", "coordinates": [-75.5398313, 10.4160653]}, "properties": {"id": 5794579081, "amenity": "atm", "brand": "Servibanca", "cash_in": "no", "drive_through": "no", "fee": "yes", "man_made": "surveillance", "network": "MasterCard, Visa, Maestro, Cirrus, American Express", "opening_hours": "24/7", "operator": "Bancoomeva", "wheelchair": "no", "data_source": "planet_osm"}}, {"type": "Feature", "geometry": {"type": "Point", "coordinates": [-75.5376953, 10.4139513]}, "properties": {"id": 5794579084, "amenity": "atm", "brand": "Bancolombia", "brand:wikidata": "Q806206", "cash_in": "yes", "drive_through": "no", "fee": "yes", "man_made": "surveillance", "network": "MasterCard, Visa, Maestro, Cirrus, American Express", "opening_hours": "Mo-Fr 08:00-18:00", "operator": "Bancolombia", "operator:wikidata": "Q806206", "wheelchair": "no", "data_source": "planet_osm"}}, {"type": "Feature", "geometry": {"type": "Point", "coordinates": [-75.5373774, 10.4129798]}, "properties": {"id": 5794579085, "amenity": "atm", "brand": "Grupo Aval", "cash_in": "yes", "drive_through": "no", "fee": "yes", "man_made": "surveillance", "network": "MasterCard, Visa, Maestro, Cirrus, American Express", "opening_hours": "Mo-Su 07:00-21:00", "operator": "\u00c9xito Express", "wheelchair": "yes", "data_source": "planet_osm"}}, {"type": "Feature", "geometry": {"type": "Point", "coordinates": [-75.5318588, 10.4096572]}, "properties": {"id": 5794579126, "amenity": "atm", "brand": "Grupo Aval", "cash_in": "no", "drive_through": "no", "fee": "yes", "man_made": "surveillance", "network": "MasterCard, Visa, Maestro, Cirrus, American Express", "opening_hours": "24/7", "operator": "Grupo Aval", "wheelchair": "yes", "data_source": "planet_osm"}}, {"type": "Feature", "geometry": {"type": "Point", "coordinates": [-75.5318715, 10.4096493]}, "properties": {"id": 5794579127, "amenity": "atm", "brand": "Grupo Aval", "cash_in": "no", "drive_through": "no", "fee": "yes", "man_made": "surveillance", "network": "MasterCard, Visa, Maestro, Cirrus, American Express", "opening_hours": "24/7", "operator": "Grupo Aval", "wheelchair": "no", "data_source": "planet_osm"}}, {"type": "Feature", "geometry": {"type": "Point", "coordinates": [-75.5329505, 10.4103801]}, "properties": {"id": 5794579144, "amenity": "atm", "brand": "ATH", "cash_in": "no", "drive_through": "no", "fee": "yes", "man_made": "surveillance", "network": "MasterCard, Visa, Maestro, Cirrus, American Express", "opening_hours": "24/7", "operator": "ATH", "wheelchair": "no", "data_source": "planet_osm"}}, {"type": "Feature", "geometry": {"type": "Point", "coordinates": [-75.5369161, 10.4079636]}, "properties": {"id": 5794579189, "amenity": "atm", "brand": "Bancolombia", "brand:wikidata": "Q806206", "cash_in": "no", "drive_through": "no", "fee": "yes", "man_made": "surveillance", "network": "MasterCard, Visa, Maestro, Cirrus, American Express", "opening_hours": "24/7", "operator": "Bancolombia", "operator:wikidata": "Q806206", "wheelchair": "yes", "data_source": "planet_osm"}}, {"type": "Feature", "geometry": {"type": "Point", "coordinates": [-75.5471863, 10.4204494]}, "properties": {"id": 5796994068, "amenity": "atm", "brand": "Bancolombia", "brand:wikidata": "Q806206", "cash_in": "no", "drive_through": "no", "fee": "no", "man_made": "surveillance", "network": "MasterCard, Visa, Maestro, Cirrus, American Express", "opening_hours": "24/7", "operator": "Bancolombia", "operator:wikidata": "Q806206", "wheelchair": "no", "data_source": "planet_osm"}}, {"type": "Feature", "geometry": {"type": "Point", "coordinates": [-75.5487219, 10.4203175]}, "properties": {"id": 5796994070, "amenity": "atm", "brand": "ATH", "cash_in": "no", "drive_through": "no", "fee": "no", "man_made": "surveillance", "network": "MasterCard, Visa, Maestro, Cirrus, American Express", "opening_hours": "24/7", "operator": "Grupo Aval", "wheelchair": "no", "data_source": "planet_osm"}}, {"type": "Feature", "geometry": {"type": "Point", "coordinates": [-75.5489431, 10.4205245]}, "properties": {"id": 5796994071, "amenity": "atm", "brand": "Bancolombia", "brand:wikidata": "Q806206", "cash_in": "no", "drive_through": "no", "fee": "no", "man_made": "surveillance", "network": "MasterCard, Visa, Maestro, Cirrus, American Express", "opening_hours": "24/7", "operator": "Bancolombia", "operator:wikidata": "Q806206", "wheelchair": "no", "data_source": "planet_osm"}}, {"type": "Feature", "geometry": {"type": "Point", "coordinates": [-75.5382264, 10.4245975]}, "properties": {"id": 5798901346, "amenity": "bank", "brand": "Bancolombia", "brand:wikidata": "Q806206", "brand:wikipedia": "es:Bancolombia", "cash_in": "no", "currency:COP": "yes", "drive_through": "no", "fee": "no", "man_made": "surveillance", "name": "Bancolombia", "name:en": "Bancolombia", "name:es": "Bancolombia", "network": "MasterCard, Visa, Maestro, Cirrus, American Express", "opening_hours": "24/7", "operator": "Bancolombia", "website": "https://www.bancolombia.com/", "wheelchair": "no", "data_source": "planet_osm"}}, {"type": "Feature", "geometry": {"type": "Point", "coordinates": [-75.5322658, 10.421213]}, "properties": {"id": 5798902581, "amenity": "atm", "brand": "Banco de Occidente", "brand:wikidata": "Q4854127", "cash_in": "no", "drive_through": "no", "fee": "no", "man_made": "surveillance", "network": "MasterCard, Visa, Maestro, Cirrus, American Express", "opening_hours": "24/7", "operator": "Banco de Occidente", "operator:wikidata": "Q4854127", "wheelchair": "yes", "data_source": "planet_osm"}}, {"type": "Feature", "geometry": {"type": "Point", "coordinates": [-75.5322296, 10.4208569]}, "properties": {"id": 5798902582, "amenity": "atm", "brand": "Banco de Bogot\u00e1", "brand:wikidata": "Q4854122", "cash_in": "no", "currency:COP": "yes", "drive_through": "no", "fee": "no", "man_made": "surveillance", "network": "MasterCard, Visa, Maestro, Cirrus, American Express", "opening_hours": "Mo-Sa 07:00-21:00; Su 08:00-20:00", "operator": "Banco de Bogot\u00e1", "operator:wikidata": "Q4854122", "wheelchair": "no", "data_source": "planet_osm"}}, {"type": "Feature", "geometry": {"type": "Point", "coordinates": [-75.5322497, 10.4208668]}, "properties": {"id": 5798902583, "amenity": "atm", "brand": "BBVA", "brand:wikidata": "Q806189", "cash_in": "no", "currency:COP": "yes", "drive_through": "no", "fee": "no", "man_made": "surveillance", "network": "MasterCard, Visa, Maestro, Cirrus, American Express", "opening_hours": "Mo-Sa 07:00-21:00; Su 08:00-20:00", "operator": "BBVA", "operator:wikidata": "Q806189", "wheelchair": "no", "data_source": "planet_osm"}}, {"type": "Feature", "geometry": {"type": "Point", "coordinates": [-75.5323154, 10.4208919]}, "properties": {"id": 5798902584, "amenity": "atm", "brand": "Bancolombia", "brand:wikidata": "Q806206", "cash_in": "no", "currency:COP": "yes", "drive_through": "no", "fee": "no", "man_made": "surveillance", "network": "MasterCard, Visa, Maestro, Cirrus, American Express", "opening_hours": "24/7", "operator": "Bancolombia", "operator:wikidata": "Q806206", "wheelchair": "no", "data_source": "planet_osm"}}, {"type": "Feature", "geometry": {"type": "Point", "coordinates": [-75.5462274, 10.4255617]}, "properties": {"id": 5799242365, "amenity": "atm", "brand": "Caja Social", "cash_in": "no", "drive_through": "no", "fee": "no", "man_made": "surveillance", "network": "Caja Social", "opening_hours": "Mo-Su 6:00-22:00", "operator": "Caja Social", "wheelchair": "yes", "data_source": "planet_osm"}}, {"type": "Feature", "geometry": {"type": "Point", "coordinates": [-75.5463991, 10.4254575]}, "properties": {"id": 5799242366, "amenity": "atm", "brand": "BBVA", "brand:wikidata": "Q806189", "cash_in": "no", "drive_through": "no", "fee": "yes", "man_made": "surveillance", "network": "MasterCard, Visa, Maestro, Cirrus, American Express", "official_name": "Banco Bilbao Vizcaya Argentaria", "opening_hours": "24/7", "operator": "BBVA", "operator:wikidata": "Q806189", "wheelchair": "no", "data_source": "planet_osm"}}, {"type": "Feature", "geometry": {"type": "Point", "coordinates": [-75.5464312, 10.425439]}, "properties": {"id": 5799242367, "amenity": "atm", "brand": "BBVA", "brand:wikidata": "Q806189", "cash_in": "no", "drive_through": "no", "fee": "yes", "man_made": "surveillance", "network": "MasterCard, Visa, Maestro, Cirrus, American Express", "official_name": "Banco Bilbao Vizcaya Argentaria", "opening_hours": "24/7", "operator": "BBVA", "operator:wikidata": "Q806189", "wheelchair": "no", "data_source": "planet_osm"}}, {"type": "Feature", "geometry": {"type": "Point", "coordinates": [-75.546857, 10.4256962]}, "properties": {"id": 5799242368, "amenity": "atm", "brand": "Banco de Bogot\u00e1", "brand:wikidata": "Q4854122", "cash_in": "no", "drive_through": "no", "fee": "yes", "man_made": "surveillance", "network": "MasterCard, Visa, Maestro, Cirrus, American Express", "opening_hours": "Mo-Sa 08:00-21:00", "operator": "Banco de Bogot\u00e1", "operator:wikidata": "Q4854122", "wheelchair": "no", "data_source": "planet_osm"}}, {"type": "Feature", "geometry": {"type": "Point", "coordinates": [-75.5468517, 10.4256725]}, "properties": {"id": 5799242369, "amenity": "atm", "brand": "Bancolombia", "brand:wikidata": "Q806206", "cash_in": "no", "drive_through": "no", "fee": "no", "man_made": "surveillance", "network": "MasterCard, Visa, Maestro, Cirrus, American Express", "opening_hours": "Mo-Sa 08:00-21:00", "operator": "Bancolombia", "operator:wikidata": "Q806206", "wheelchair": "no", "data_source": "planet_osm"}}, {"type": "Feature", "geometry": {"type": "Point", "coordinates": [-75.5468483, 10.4256567]}, "properties": {"id": 5799242370, "amenity": "atm", "brand": "Bancolombia", "brand:wikidata": "Q806206", "cash_in": "no", "drive_through": "no", "fee": "no", "man_made": "surveillance", "network": "MasterCard, Visa, Maestro, Cirrus, American Express", "opening_hours": "Mo-Sa 08:00-21:00", "operator": "Bancolombia", "operator:wikidata": "Q806206", "wheelchair": "no", "data_source": "planet_osm"}}, {"type": "Feature", "geometry": {"type": "Point", "coordinates": [-75.5471494, 10.4250433]}, "properties": {"id": 5799242371, "amenity": "atm", "brand": "Caja Social", "cash_in": "no", "drive_through": "no", "fee": "no", "man_made": "surveillance", "network": "Caja Social", "opening_hours": "24/7", "operator": "Caja Social", "wheelchair": "yes", "data_source": "planet_osm"}}, {"type": "Feature", "geometry": {"type": "Point", "coordinates": [-75.5472607, 10.424736]}, "properties": {"id": 5799242372, "amenity": "atm", "brand": "Scotiabank - Colpatria", "cash_in": "yes", "check_date": "2025-08-23", "drive_through": "no", "fee": "yes", "man_made": "surveillance", "network": "MasterCard, Visa, Maestro, Cirrus, American Express", "opening_hours": "24/7", "operator": "Colpatria", "wheelchair": "yes", "data_source": "planet_osm"}}, {"type": "Feature", "geometry": {"type": "Point", "coordinates": [-75.5469824, 10.4245388]}, "properties": {"id": 5799242375, "amenity": "atm", "brand": "Davivienda", "brand:wikidata": "Q5242054", "cash_in": "no", "drive_through": "no", "fee": "no", "man_made": "surveillance", "network": "MasterCard, Visa, Maestro, Cirrus, American Express", "opening_hours": "24/7", "operator": "Davivienda", "operator:wikidata": "Q5242054", "wheelchair": "no", "data_source": "planet_osm"}}, {"type": "Feature", "geometry": {"type": "Point", "coordinates": [-75.5469529, 10.4245494]}, "properties": {"id": 5799242376, "amenity": "atm", "brand": "Banco de Bogot\u00e1", "brand:wikidata": "Q4854122", "cash_in": "no", "drive_through": "no", "fee": "no", "man_made": "surveillance", "network": "MasterCard, Visa, Maestro, Cirrus, American Express", "opening_hours": "24/7", "operator": "Banco de Bogot\u00e1", "operator:wikidata": "Q4854122", "wheelchair": "no", "data_source": "planet_osm"}}, {"type": "Feature", "geometry": {"type": "Point", "coordinates": [-75.5469952, 10.4245355]}, "properties": {"id": 5799242377, "amenity": "atm", "brand": "Davivienda", "brand:wikidata": "Q5242054", "cash_in": "no", "drive_through": "no", "fee": "no", "man_made": "surveillance", "network": "MasterCard, Visa, Maestro, Cirrus, American Express", "opening_hours": "24/7", "operator": "Davivienda", "operator:wikidata": "Q5242054", "wheelchair": "no", "data_source": "planet_osm"}}, {"type": "Feature", "geometry": {"type": "Point", "coordinates": [-75.5461563, 10.4242856]}, "properties": {"id": 5799242390, "amenity": "atm", "brand": "Servibanca", "cash_in": "no", "drive_through": "no", "fee": "no", "man_made": "surveillance", "network": "MasterCard, Visa, Maestro, Cirrus, American Express", "opening_hours": "Mo-Sa 08:00-20:00", "operator": "Servibanca", "wheelchair": "no", "data_source": "planet_osm"}}, {"type": "Feature", "geometry": {"type": "Point", "coordinates": [-75.5461169, 10.424179]}, "properties": {"id": 5799242395, "amenity": "atm", "brand": "Bancolombia", "brand:wikidata": "Q806206", "cash_in": "no", "drive_through": "no", "fee": "no", "man_made": "surveillance", "network": "MasterCard, Visa, Maestro, Cirrus, American Express", "opening_hours": "Mo-Sa 08:00-20:00", "operator": "Bancolombia", "operator:wikidata": "Q806206", "wheelchair": "no", "data_source": "planet_osm"}}, {"type": "Feature", "geometry": {"type": "Point", "coordinates": [-75.5454703, 10.4277156]}, "properties": {"id": 5813408193, "amenity": "atm", "brand": "Banco de Bogot\u00e1", "brand:wikidata": "Q4854122", "cash_in": "no", "drive_through": "no", "fee": "no", "man_made": "surveillance", "network": "MasterCard, Visa, Maestro, Cirrus, American Express", "opening_hours": "24/7", "operator": "Banco de Bogot\u00e1", "operator:wikidata": "Q4854122", "wheelchair": "no", "data_source": "planet_osm"}}, {"type": "Feature", "geometry": {"type": "Point", "coordinates": [-75.5472828, 10.423421]}, "properties": {"id": 5815752939, "amenity": "atm", "brand": "BBVA", "brand:wikidata": "Q806189", "cash_in": "no", "drive_through": "no", "fee": "yes", "man_made": "surveillance", "network": "MasterCard, Visa, Maestro, Cirrus, American Express", "official_name": "Banco Bilbao Vizcaya Argentaria", "opening_hours": "24/7", "operator": "BBVA", "operator:wikidata": "Q806189", "wheelchair": "no", "data_source": "planet_osm"}}, {"type": "Feature", "geometry": {"type": "Point", "coordinates": [-75.5486199, 10.4236255]}, "properties": {"id": 5815752940, "amenity": "atm", "brand": "Banco de Bogot\u00e1", "brand:wikidata": "Q4854122", "cash_in": "no", "drive_through": "no", "fee": "no", "man_made": "surveillance", "network": "MasterCard, Visa, Maestro, Cirrus, American Express", "opening_hours": "24/7", "operator": "Banco de Bogot\u00e1", "operator:wikidata": "Q4854122", "wheelchair": "no", "data_source": "planet_osm"}}, {"type": "Feature", "geometry": {"type": "Point", "coordinates": [-75.5486575, 10.4236479]}, "properties": {"id": 5815752941, "amenity": "atm", "brand": "Banco de Bogot\u00e1", "brand:wikidata": "Q4854122", "cash_in": "no", "drive_through": "no", "fee": "no", "man_made": "surveillance", "network": "MasterCard, Visa, Maestro, Cirrus, American Express", "opening_hours": "24/7", "operator": "Banco de Bogot\u00e1", "operator:wikidata": "Q4854122", "wheelchair": "no", "data_source": "planet_osm"}}, {"type": "Feature", "geometry": {"type": "Point", "coordinates": [-75.546965, 10.4235668]}, "properties": {"id": 5815752951, "amenity": "atm", "brand": "Banco AV Villas", "brand:wikidata": "Q4854068", "cash_in": "no", "drive_through": "no", "fee": "no", "man_made": "surveillance", "network": "MasterCard, Visa, Maestro, Cirrus, American Express", "opening_hours": "24/7", "operator": "Banco AV Villas", "operator:wikidata": "Q4854068", "wheelchair": "no", "data_source": "planet_osm"}}, {"type": "Feature", "geometry": {"type": "Point", "coordinates": [-75.5495929, 10.4263392]}, "properties": {"id": 5815752952, "amenity": "atm", "brand": "Davivienda", "brand:wikidata": "Q5242054", "cash_in": "no", "drive_through": "no", "fee": "no", "man_made": "surveillance", "network": "MasterCard, Visa, Maestro, Cirrus, American Express", "opening_hours": "24/7", "operator": "Davivienda", "operator:wikidata": "Q5242054", "wheelchair": "no", "data_source": "planet_osm"}}, {"type": "Feature", "geometry": {"type": "Point", "coordinates": [-73.2403892, 6.3555374]}, "properties": {"id": 6388472075, "man_made": "surveillance", "data_source": "planet_osm"}}, {"type": "Feature", "geometry": {"type": "Point", "coordinates": [-75.5835297, 6.2543632]}, "properties": {"id": 6401151385, "man_made": "surveillance", "data_source": "planet_osm"}}, {"type": "Feature", "geometry": {"type": "Point", "coordinates": [-73.1290835, 5.6448424]}, "properties": {"id": 6732026237, "man_made": "surveillance", "data_source": "planet_osm"}}, {"type": "Feature", "geometry": {"type": "Point", "coordinates": [-73.6594459, 5.9802709]}, "properties": {"id": 7112443791, "camera:mount": "pole", "camera:type": "dome", "man_made": "surveillance", "operator": "Polic\u00eda Nacional", "surveillance": "public", "surveillance:type": "camera", "surveillance:zone": "town", "data_source": "planet_osm"}}, {"type": "Feature", "geometry": {"type": "Point", "coordinates": [-74.8055407, 10.9941718]}, "properties": {"man_made": "surveillance", "surveillance:type": "camera"}}, {"type": "Feature", "geometry": {"type": "Point", "coordinates": [-74.7778007, 10.9828178]}, "properties": {"man_made": "surveillance", "surveillance:type": "camera"}}, {"type": "Feature", "geometry": {"type": "Point", "coordinates": [-75.5514806, 10.4266772]}, "properties": {"camera:mount": "pole", "camera:type": "dome", "man_made": "surveillance", "surveillance:type": "camera"}}, {"type": "Feature", "geometry": {"type": "Point", "coordinates": [-74.9527422, 10.9872982]}, "properties": {"man_made": "surveillance", "surveillance:type": "camera"}}, {"type": "Feature", "geometry": {"type": "Point", "coordinates": [-73.4360536, 7.116181]}, "properties": {"camera:mount": "pole", "camera:type": "dome", "man_made": "surveillance", "surveillance": "public", "surveillance:type": "camera", "surveillance:zone": "traffic"}}, {"type": "Feature", "geometry": {"type": "Point", "coordinates": [-73.44419, 7.119949]}, "properties": {"camera:mount": "pole", "camera:type": "dome", "man_made": "surveillance", "surveillance": "public", "surveillance:type": "camera", "surveillance:zone": "traffic"}}, {"type": "Feature", "geometry": {"type": "Point", "coordinates": [-74.7949599, 11.0222035]}, "properties": {"man_made": "surveillance", "surveillance:type": "camera"}}, {"type": "Feature", "geometry": {"type": "Point", "coordinates": [-75.5781651, 6.2549397]}, "properties": {"man_made": "surveillance", "surveillance:type": "camera"}}, {"type": "Feature", "geometry": {"type": "Point", "coordinates": [-73.6726478, 6.0020264]}, "properties": {"camera:mount": "pole", "man_made": "surveillance", "surveillance": "guard", "surveillance:type": "camera"}}, {"type": "Feature", "geometry": {"type": "Point", "coordinates": [-75.5745959, 6.197319]}, "properties": {"man_made": "surveillance", "surveillance:type": "camera"}}, {"type": "Feature", "geometry": {"type": "Point", "coordinates": [-75.3588735, 6.1740695]}, "properties": {"camera:mount": "pole", "camera:type": "dome", "man_made": "surveillance", "surveillance:type": "camera"}}, {"type": "Feature", "geometry": {"type": "Point", "coordinates": [-73.6765765, 6.0089995]}, "properties": {"camera:mount": "pole", "camera:type": "dome", "man_made": "surveillance", "surveillance": "public", "surveillance:type": "camera", "surveillance:zone": "street"}}, {"type": "Feature", "geometry": {"type": "Point", "coordinates": [-73.1951832, 6.4216157]}, "properties": {"man_made": "surveillance", "surveillance:type": "camera"}}, {"type": "Feature", "geometry": {"type": "Point", "coordinates": [-73.2045033, 6.4316407]}, "properties": {"man_made": "surveillance", "surveillance:type": "camera"}}, {"type": "Feature", "geometry": {"type": "Point", "coordinates": [-73.1911084, 6.4311774]}, "properties": {"man_made": "surveillance", "surveillance:type": "camera"}}, {"type": "Feature", "geometry": {"type": "Point", "coordinates": [-73.3001988, 6.2634728]}, "properties": {"man_made": "surveillance", "surveillance:type": "camera"}}, {"type": "Feature", "geometry": {"type": "Point", "coordinates": [-73.1733241, 6.5332081]}, "properties": {"man_made": "surveillance", "surveillance:type": "camera"}}, {"type": "Feature", "geometry": {"type": "Point", "coordinates": [-73.1321865, 6.5516468]}, "properties": {"man_made": "surveillance", "surveillance:type": "camera"}}, {"type": "Feature", "geometry": {"type": "Point", "coordinates": [-73.1711596, 6.4148302]}, "properties": {"man_made": "surveillance", "surveillance:type": "camera"}}, {"type": "Feature", "geometry": {"type": "Point", "coordinates": [-73.6377359, 6.062258]}, "properties": {"camera:mount": "pole", "camera:type": "dome", "man_made": "surveillance", "surveillance": "public", "surveillance:type": "camera", "surveillance:zone": "town"}}, {"type": "Feature", "geometry": {"type": "Point", "coordinates": [-73.9502061, 6.3118567]}, "properties": {"camera:mount": "pole", "camera:type": "dome", "man_made": "surveillance", "surveillance": "public", "surveillance:type": "camera", "surveillance:zone": "town"}}, {"type": "Feature", "geometry": {"type": "Point", "coordinates": [-75.571431, 6.2101601]}, "properties": {"man_made": "surveillance", "surveillance:type": "camera"}}, {"type": "Feature", "geometry": {"type": "Point", "coordinates": [-75.61216, 6.2551438]}, "properties": {"man_made": "surveillance", "surveillance:type": "camera"}}, {"type": "Feature", "geometry": {"type": "Point", "coordinates": [-75.6109002, 6.2542088]}, "properties": {"man_made": "surveillance", "surveillance:type": "camera"}}, {"type": "Feature", "geometry": {"type": "Point", "coordinates": [-74.0566739, 6.6504966]}, "properties": {"camera:mount": "pole", "camera:type": "dome", "man_made": "surveillance", "surveillance:type": "camera"}}, {"type": "Feature", "geometry": {"type": "Point", "coordinates": [-74.0567049, 6.6524186]}, "properties": {"camera:mount": "pole", "camera:type": "dome", "man_made": "surveillance", "surveillance": "public", "surveillance:type": "camera"}}, {"type": "Feature", "geometry": {"type": "Point", "coordinates": [-74.0571808, 6.6516062]}, "properties": {"camera:mount": "pole", "camera:type": "dome", "man_made": "surveillance", "surveillance": "public", "surveillance:type": "camera"}}, {"type": "Feature", "geometry": {"type": "Point", "coordinates": [-74.0584311, 6.6488427]}, "properties": {"camera:mount": "pole", "camera:type": "dome", "man_made": "surveillance", "surveillance": "public", "surveillance:type": "camera"}}, {"type": "Feature", "geometry": {"type": "Point", "coordinates": [-75.4276889, 6.1713277]}, "properties": {"camera:direction": "220", "camera:mount": "ceiling", "camera:type": "fixed", "level": "0", "man_made": "surveillance", "surveillance": "outdoor", "surveillance:type": "camera", "surveillance:zone": "traffic"}}], "networks": []}